RSP-03                  
1 65732U 98067XL  26041.53093844  .00989379  54152-3  13005-2 0  9998
2 65732  51.6134 186.1480 0008377 313.0297  47.0013 16.06250347 22624
YOTSUBA-KULOVER         
1 65941U 98067XN  26041.55749337  .00127751  00000+0  97088-3 0  9998
2 65941  51.6246 196.9700 0004195 273.5434  86.5084 15.71385657 19223
BOTAN                   
1 65942U 98067XP  26041.41625111  .00360648  00000+0  13934-2 0  9998
2 65942  51.6175 193.7233 0006713 296.3894  63.6420 15.85716471 19252
E-KAGAKU-1              
1 65943U 98067XQ  26041.43121824  .00124437  00000+0  95185-3 0  9996
2 65943  51.6272 197.6387 0003796 287.8042  72.2541 15.71245311 19202
HRC MONOBLOCK CAMERA    
1 66052U 98067XR  26040.71829995  .00047675  00000+0  59664-3 0  9992
2 66052  51.6276 206.3794 0001234 357.5196   2.5791 15.59309115 18029
HTV-X1                  
1 66174U 25241A   26041.53604394  .00010157  00000+0  19516-3 0  9993
2 66174  51.6312 206.5863 0011092  84.3744 275.8509 15.48525084   511
SZ-21 MODULE            
1 66515U 25246C   26041.29426735  .00034158  00000+0  32044-3 0  9999
2 66515  41.4767  11.7270 0002700 289.3019  70.7530 15.66465298 13775
SHENZHOU-22             
1 66645U 25272A   26041.38023602  .00022829  00000+0  28372-3 0  9999
2 66645  41.4682  14.1762 0004476  48.6892 311.4331 15.59430362267642
SOYUZ-MS 28             
1 66664U 25275A   26041.53604394  .00010157  00000+0  19516-3 0  9994
2 66664  51.6312 206.5863 0011092  84.3744 275.8509 15.48525084  1280
DUPLEX                  
1 66906U 98067XS  26041.47022347  .00031776  00000+0  48216-3 0  9996
2 66906  51.6289 205.3999 0001316  80.8326 279.2814 15.54308712 10892
ISS OBJECT XT           
1 66907U 98067XT  26041.44965570  .00105615  00000+0  11762-2 0  9997
2 66907  51.6268 203.7611 0001772 255.1778 104.9020 15.62011841 10916
ISS OBJECT XU           
1 66908U 98067XU  26041.44904666  .00105461  00000+0  11731-2 0  9992
2 66908  51.6268 203.7551 0001635 262.2447  97.8362 15.62043652 10914
