CCSDS_OMM_VERS = 2.0
CREATION_DATE  = 
ORIGINATOR     = 

OBJECT_NAME    = RSP-03
OBJECT_ID      = 1998-067XL
CENTER_NAME    = EARTH
REF_FRAME      = TEME
TIME_SYSTEM    = UTC
MEAN_ELEMENT_THEORY = SGP/SGP4

EPOCH          = 2026-02-10T12:44:33.081216
MEAN_MOTION    = 16.06250347
ECCENTRICITY   = .00083779
INCLINATION    = 51.6134
RA_OF_ASC_NODE = 186.1480
ARG_OF_PERICENTER = 313.0297
MEAN_ANOMALY   = 47.0013

EPHEMERIS_TYPE = 0
CLASSIFICATION_TYPE = U
NORAD_CAT_ID   = 65732
ELEMENT_SET_NO = 999
REV_AT_EPOCH   = 2262
BSTAR          = .13004855E-2
MEAN_MOTION_DOT = .989379E-2
MEAN_MOTION_DDOT = .54152492E-3

CCSDS_OMM_VERS = 2.0
CREATION_DATE  = 
ORIGINATOR     = 

OBJECT_NAME    = YOTSUBA-KULOVER
OBJECT_ID      = 1998-067XN
CENTER_NAME    = EARTH
REF_FRAME      = TEME
TIME_SYSTEM    = UTC
MEAN_ELEMENT_THEORY = SGP/SGP4

EPOCH          = 2026-02-10T13:22:47.427168
MEAN_MOTION    = 15.71385657
ECCENTRICITY   = .00041958
INCLINATION    = 51.6246
RA_OF_ASC_NODE = 196.9700
ARG_OF_PERICENTER = 273.5434
MEAN_ANOMALY   = 86.5084

EPHEMERIS_TYPE = 0
CLASSIFICATION_TYPE = U
NORAD_CAT_ID   = 65941
ELEMENT_SET_NO = 999
REV_AT_EPOCH   = 1922
BSTAR          = .97088112E-3
MEAN_MOTION_DOT = .127751E-2
MEAN_MOTION_DDOT = 0

CCSDS_OMM_VERS = 2.0
CREATION_DATE  = 
ORIGINATOR     = 

OBJECT_NAME    = BOTAN
OBJECT_ID      = 1998-067XP
CENTER_NAME    = EARTH
REF_FRAME      = TEME
TIME_SYSTEM    = UTC
MEAN_ELEMENT_THEORY = SGP/SGP4

EPOCH          = 2026-02-10T09:59:24.095904
MEAN_MOTION    = 15.85716471
ECCENTRICITY   = .0006713
INCLINATION    = 51.6175
RA_OF_ASC_NODE = 193.7233
ARG_OF_PERICENTER = 296.3894
MEAN_ANOMALY   = 63.6420

EPHEMERIS_TYPE = 0
CLASSIFICATION_TYPE = U
NORAD_CAT_ID   = 65942
ELEMENT_SET_NO = 999
REV_AT_EPOCH   = 1925
BSTAR          = .13934436E-2
MEAN_MOTION_DOT = .360648E-2
MEAN_MOTION_DDOT = 0

CCSDS_OMM_VERS = 2.0
CREATION_DATE  = 
ORIGINATOR     = 

OBJECT_NAME    = E-KAGAKU-1
OBJECT_ID      = 1998-067XQ
CENTER_NAME    = EARTH
REF_FRAME      = TEME
TIME_SYSTEM    = UTC
MEAN_ELEMENT_THEORY = SGP/SGP4

EPOCH          = 2026-02-10T10:20:57.255936
MEAN_MOTION    = 15.71245311
ECCENTRICITY   = .00037965
INCLINATION    = 51.6272
RA_OF_ASC_NODE = 197.6387
ARG_OF_PERICENTER = 287.8042
MEAN_ANOMALY   = 72.2541

EPHEMERIS_TYPE = 0
CLASSIFICATION_TYPE = U
NORAD_CAT_ID   = 65943
ELEMENT_SET_NO = 999
REV_AT_EPOCH   = 1920
BSTAR          = .95185243E-3
MEAN_MOTION_DOT = .124437E-2
MEAN_MOTION_DDOT = 0

CCSDS_OMM_VERS = 2.0
CREATION_DATE  = 
ORIGINATOR     = 

OBJECT_NAME    = HRC MONOBLOCK CAMERA
OBJECT_ID      = 1998-067XR
CENTER_NAME    = EARTH
REF_FRAME      = TEME
TIME_SYSTEM    = UTC
MEAN_ELEMENT_THEORY = SGP/SGP4

EPOCH          = 2026-02-09T17:14:21.115680
MEAN_MOTION    = 15.59309115
ECCENTRICITY   = .00012346
INCLINATION    = 51.6276
RA_OF_ASC_NODE = 206.3794
ARG_OF_PERICENTER = 357.5196
MEAN_ANOMALY   = 2.5791

EPHEMERIS_TYPE = 0
CLASSIFICATION_TYPE = U
NORAD_CAT_ID   = 66052
ELEMENT_SET_NO = 999
REV_AT_EPOCH   = 1802
BSTAR          = .59664469E-3
MEAN_MOTION_DOT = .47675E-3
MEAN_MOTION_DDOT = 0

CCSDS_OMM_VERS = 2.0
CREATION_DATE  = 
ORIGINATOR     = 

OBJECT_NAME    = HTV-X1
OBJECT_ID      = 2025-241A
CENTER_NAME    = EARTH
REF_FRAME      = TEME
TIME_SYSTEM    = UTC
MEAN_ELEMENT_THEORY = SGP/SGP4

EPOCH          = 2026-02-10T12:51:54.196416
MEAN_MOTION    = 15.48525084
ECCENTRICITY   = .0011092
INCLINATION    = 51.6312
RA_OF_ASC_NODE = 206.5863
ARG_OF_PERICENTER = 84.3744
MEAN_ANOMALY   = 275.8509

EPHEMERIS_TYPE = 0
CLASSIFICATION_TYPE = U
NORAD_CAT_ID   = 66174
ELEMENT_SET_NO = 999
REV_AT_EPOCH   = 51
BSTAR          = .19515812E-3
MEAN_MOTION_DOT = .10157E-3
MEAN_MOTION_DDOT = 0

CCSDS_OMM_VERS = 2.0
CREATION_DATE  = 
ORIGINATOR     = 

OBJECT_NAME    = SZ-21 MODULE
OBJECT_ID      = 2025-246C
CENTER_NAME    = EARTH
REF_FRAME      = TEME
TIME_SYSTEM    = UTC
MEAN_ELEMENT_THEORY = SGP/SGP4

EPOCH          = 2026-02-10T07:03:44.699040
MEAN_MOTION    = 15.66465298
ECCENTRICITY   = .00027
INCLINATION    = 41.4767
RA_OF_ASC_NODE = 11.7270
ARG_OF_PERICENTER = 289.3019
MEAN_ANOMALY   = 70.7530

EPHEMERIS_TYPE = 0
CLASSIFICATION_TYPE = U
NORAD_CAT_ID   = 66515
ELEMENT_SET_NO = 999
REV_AT_EPOCH   = 1377
BSTAR          = .32044E-3
MEAN_MOTION_DOT = .34158E-3
MEAN_MOTION_DDOT = 0

CCSDS_OMM_VERS = 2.0
CREATION_DATE  = 
ORIGINATOR     = 

OBJECT_NAME    = SHENZHOU-22
OBJECT_ID      = 2025-272A
CENTER_NAME    = EARTH
REF_FRAME      = TEME
TIME_SYSTEM    = UTC
MEAN_ELEMENT_THEORY = SGP/SGP4

EPOCH          = 2026-02-10T09:07:32.392128
MEAN_MOTION    = 15.59430362
ECCENTRICITY   = .00044765
INCLINATION    = 41.4682
RA_OF_ASC_NODE = 14.1762
ARG_OF_PERICENTER = 48.6892
MEAN_ANOMALY   = 311.4331

EPHEMERIS_TYPE = 0
CLASSIFICATION_TYPE = U
NORAD_CAT_ID   = 66645
ELEMENT_SET_NO = 999
REV_AT_EPOCH   = 26764
BSTAR          = .2837188E-3
MEAN_MOTION_DOT = .22829E-3
MEAN_MOTION_DDOT = 0

CCSDS_OMM_VERS = 2.0
CREATION_DATE  = 
ORIGINATOR     = 

OBJECT_NAME    = SOYUZ-MS 28
OBJECT_ID      = 2025-275A
CENTER_NAME    = EARTH
REF_FRAME      = TEME
TIME_SYSTEM    = UTC
MEAN_ELEMENT_THEORY = SGP/SGP4

EPOCH          = 2026-02-10T12:51:54.196416
MEAN_MOTION    = 15.48525084
ECCENTRICITY   = .0011092
INCLINATION    = 51.6312
RA_OF_ASC_NODE = 206.5863
ARG_OF_PERICENTER = 84.3744
MEAN_ANOMALY   = 275.8509

EPHEMERIS_TYPE = 0
CLASSIFICATION_TYPE = U
NORAD_CAT_ID   = 66664
ELEMENT_SET_NO = 999
REV_AT_EPOCH   = 128
BSTAR          = .19515812E-3
MEAN_MOTION_DOT = .10157E-3
MEAN_MOTION_DDOT = 0

CCSDS_OMM_VERS = 2.0
CREATION_DATE  = 
ORIGINATOR     = 

OBJECT_NAME    = DUPLEX
OBJECT_ID      = 1998-067XS
CENTER_NAME    = EARTH
REF_FRAME      = TEME
TIME_SYSTEM    = UTC
MEAN_ELEMENT_THEORY = SGP/SGP4

EPOCH          = 2026-02-10T11:17:07.307808
MEAN_MOTION    = 15.54308712
ECCENTRICITY   = .00013166
INCLINATION    = 51.6289
RA_OF_ASC_NODE = 205.3999
ARG_OF_PERICENTER = 80.8326
MEAN_ANOMALY   = 279.2814

EPHEMERIS_TYPE = 0
CLASSIFICATION_TYPE = U
NORAD_CAT_ID   = 66906
ELEMENT_SET_NO = 999
REV_AT_EPOCH   = 1089
BSTAR          = .48215924E-3
MEAN_MOTION_DOT = .31776E-3
MEAN_MOTION_DDOT = 0

CCSDS_OMM_VERS = 2.0
CREATION_DATE  = 
ORIGINATOR     = 

OBJECT_NAME    = ISS OBJECT XT
OBJECT_ID      = 1998-067XT
CENTER_NAME    = EARTH
REF_FRAME      = TEME
TIME_SYSTEM    = UTC
MEAN_ELEMENT_THEORY = SGP/SGP4

EPOCH          = 2026-02-10T10:47:30.252480
MEAN_MOTION    = 15.62011841
ECCENTRICITY   = .00017723
INCLINATION    = 51.6268
RA_OF_ASC_NODE = 203.7611
ARG_OF_PERICENTER = 255.1778
MEAN_ANOMALY   = 104.9020

EPHEMERIS_TYPE = 0
CLASSIFICATION_TYPE = U
NORAD_CAT_ID   = 66907
ELEMENT_SET_NO = 999
REV_AT_EPOCH   = 1091
BSTAR          = .11761712E-2
MEAN_MOTION_DOT = .105615E-2
MEAN_MOTION_DDOT = 0

CCSDS_OMM_VERS = 2.0
CREATION_DATE  = 
ORIGINATOR     = 

OBJECT_NAME    = ISS OBJECT XU
OBJECT_ID      = 1998-067XU
CENTER_NAME    = EARTH
REF_FRAME      = TEME
TIME_SYSTEM    = UTC
MEAN_ELEMENT_THEORY = SGP/SGP4

EPOCH          = 2026-02-10T10:46:37.631424
MEAN_MOTION    = 15.62043652
ECCENTRICITY   = .00016355
INCLINATION    = 51.6268
RA_OF_ASC_NODE = 203.7551
ARG_OF_PERICENTER = 262.2447
MEAN_ANOMALY   = 97.8362

EPHEMERIS_TYPE = 0
CLASSIFICATION_TYPE = U
NORAD_CAT_ID   = 66908
ELEMENT_SET_NO = 999
REV_AT_EPOCH   = 1091
BSTAR          = .11730542E-2
MEAN_MOTION_DOT = .105461E-2
MEAN_MOTION_DDOT = 0

